     3.03           N: GNSS NAV DATA    M: Mixed            RINEX VERSION / TYPE
sbp2rinex v2.2 (RTKL                    20210504 171529 UTC PGM / RUN BY / DATE 
log: 202103102310-202103102340.sbp                          COMMENT             
format: Swift Navigation SBP, option: CONVBASE,EPHALL,OBSALLCOMMENT             
                                                            END OF HEADER       
G32 2021  3 11  0  0  0  .209198333323E-04  .795807864051E-12  .000000000000E+00
      .980000000000E+02 -.345937500000E+02  .415160150230E-08 -.192218900366E+01
     -.175088644028E-05  .470220926218E-02  .121481716633E-04  .515365273857E+04
      .345600000000E+06  .335276126862E-07  .175325757879E-01 -.109896063805E-06
      .957720013568E+00  .145312500000E+03 -.241753837862E+01 -.766246202944E-08
      .348585948575E-09  .200000000000E+01  .214800000000E+04  .100000000000E+01
      .200000000000E+01  .000000000000E+00  .465661287308E-09  .980000000000E+02
      .343602000000E+06  .400000000000E+01
G22 2021  3 10 23 59 28 -.663104467094E-03  .795807864051E-11  .000000000000E+00
      .000000000000E+00 -.108593750000E+03  .522128891621E-08  .261739439659E+01
     -.562705099583E-05  .702584860846E-02  .385195016861E-05  .515359022141E+04
      .345568000000E+06  .931322574615E-07 -.111878117471E+01  .447034835815E-07
      .933781445322E+00  .289218750000E+03 -.102398350971E+01 -.847963892528E-08
     -.414302971667E-09  .200000000000E+01  .214800000000E+04  .100000000000E+01
      .400000000000E+01  .000000000000E+00 -.181607902050E-07  .000000000000E+00
      .343602000000E+06  .600000000000E+01
G 8 2021  3 11  0  0  0 -.132438726723E-04 -.136424205266E-11  .000000000000E+00
      .750000000000E+02  .730312500000E+02  .418624580251E-08 -.262738423260E+01
      .381655991077E-05  .628344959114E-02  .117681920528E-04  .515357109642E+04
      .345600000000E+06 -.149011611938E-06 -.313401626084E+01 -.633299350739E-07
      .968296415352E+00  .159531250000E+03 -.466484345231E-02 -.771996442465E-08
      .410731394325E-10  .200000000000E+01  .214800000000E+04  .100000000000E+01
      .400000000000E+01  .000000000000E+00  .512227416039E-08  .750000000000E+02
      .343604000000E+06  .600000000000E+01
G22 2021  3 11  0  0  0 -.663105864078E-03  .795807864051E-11  .000000000000E+00
      .950000000000E+02 -.108593750000E+03  .522093175848E-08  .262206200350E+01
     -.562891364098E-05  .702584825922E-02  .385195016861E-05  .515359022522E+04
      .345600000000E+06  .931322574615E-07 -.111878145559E+01  .447034835815E-07
      .933781440934E+00  .289218750000E+03 -.102398346143E+01 -.847963892528E-08
     -.414302971667E-09  .200000000000E+01  .214800000000E+04  .100000000000E+01
      .200000000000E+01  .000000000000E+00 -.181607902050E-07  .950000000000E+02
      .343607000000E+06  .400000000000E+01
G22 2021  3 10 23 59 28 -.663104467094E-03  .795807864051E-11  .000000000000E+00
      .000000000000E+00 -.108593750000E+03  .522128891621E-08  .261739439659E+01
     -.562705099583E-05  .702584860846E-02  .385195016861E-05  .515359022141E+04
      .345568000000E+06  .931322574615E-07 -.111878117471E+01  .447034835815E-07
      .933781445322E+00  .289218750000E+03 -.102398350971E+01 -.847963892528E-08
     -.414302971667E-09  .200000000000E+01  .214800000000E+04  .100000000000E+01
      .400000000000E+01  .000000000000E+00 -.181607902050E-07  .000000000000E+00
      .343608000000E+06  .600000000000E+01
G 8 2021  3 10 23 59 44 -.132415443659E-04 -.136424205266E-11  .000000000000E+00
      .500000000000E+01  .730312500000E+02  .418660296025E-08 -.262971812236E+01
      .381655991077E-05  .628344027791E-02  .117681920528E-04  .515357111359E+04
      .345584000000E+06 -.150874257088E-06 -.313401612625E+01 -.633299350739E-07
      .968296421204E+00  .159531250000E+03 -.466496194868E-02 -.771996442465E-08
      .410731394325E-10  .200000000000E+01  .214800000000E+04  .100000000000E+01
      .200000000000E+01  .000000000000E+00  .512227416039E-08  .500000000000E+01
      .343608000000E+06  .400000000000E+01
G22 2021  3 11  0  0  0 -.663105864078E-03  .795807864051E-11  .000000000000E+00
      .950000000000E+02 -.108593750000E+03  .522093175848E-08  .262206200350E+01
     -.562891364098E-05  .702584825922E-02  .385195016861E-05  .515359022522E+04
      .345600000000E+06  .931322574615E-07 -.111878145559E+01  .447034835815E-07
      .933781440934E+00  .289218750000E+03 -.102398346143E+01 -.847963892528E-08
     -.414302971667E-09  .200000000000E+01  .214800000000E+04  .100000000000E+01
      .200000000000E+01  .000000000000E+00 -.181607902050E-07  .950000000000E+02
      .343612000000E+06  .400000000000E+01
G32 2021  3 10 23 59 44  .209193676710E-04  .795807864051E-12  .000000000000E+00
      .320000000000E+02 -.345937500000E+02  .415160150230E-08 -.192452400671E+01
     -.175088644028E-05  .470220588613E-02  .121481716633E-04  .515365274429E+04
      .345584000000E+06  .335276126862E-07  .175327118393E-01 -.109896063805E-06
      .957720019420E+00  .145312500000E+03 -.241753717025E+01 -.766246202944E-08
      .348585948575E-09  .200000000000E+01  .214800000000E+04  .100000000000E+01
      .200000000000E+01  .000000000000E+00  .465661287308E-09  .320000000000E+02
      .343619000000E+06  .400000000000E+01
G32 2021  3 11  0  0  0  .209198333323E-04  .795807864051E-12  .000000000000E+00
      .980000000000E+02 -.345937500000E+02  .415160150230E-08 -.192218900366E+01
     -.175088644028E-05  .470220926218E-02  .121481716633E-04  .515365273857E+04
      .345600000000E+06  .335276126862E-07  .175325757879E-01 -.109896063805E-06
      .957720013568E+00  .145312500000E+03 -.241753837862E+01 -.766246202944E-08
      .348585948575E-09  .200000000000E+01  .214800000000E+04  .100000000000E+01
      .200000000000E+01  .000000000000E+00  .465661287308E-09  .980000000000E+02
      .343622000000E+06  .400000000000E+01
G32 2021  3 10 23 59 44  .209193676710E-04  .795807864051E-12  .000000000000E+00
      .320000000000E+02 -.345937500000E+02  .415160150230E-08 -.192452400671E+01
     -.175088644028E-05  .470220588613E-02  .121481716633E-04  .515365274429E+04
      .345584000000E+06  .335276126862E-07  .175327118393E-01 -.109896063805E-06
      .957720019420E+00  .145312500000E+03 -.241753717025E+01 -.766246202944E-08
      .348585948575E-09  .200000000000E+01  .214800000000E+04  .100000000000E+01
      .200000000000E+01  .000000000000E+00  .465661287308E-09  .320000000000E+02
      .343632000000E+06  .400000000000E+01
G22 2021  3 10 23 59 28 -.663104467094E-03  .795807864051E-11  .000000000000E+00
      .000000000000E+00 -.108593750000E+03  .522128891621E-08  .261739439659E+01
     -.562705099583E-05  .702584860846E-02  .385195016861E-05  .515359022141E+04
      .345568000000E+06  .931322574615E-07 -.111878117471E+01  .447034835815E-07
      .933781445322E+00  .289218750000E+03 -.102398350971E+01 -.847963892528E-08
     -.414302971667E-09  .200000000000E+01  .214800000000E+04  .100000000000E+01
      .400000000000E+01  .000000000000E+00 -.181607902050E-07  .000000000000E+00
      .343632000000E+06  .600000000000E+01
G22 2021  3 11  0  0  0 -.663105864078E-03  .795807864051E-11  .000000000000E+00
      .950000000000E+02 -.108593750000E+03  .522093175848E-08  .262206200350E+01
     -.562891364098E-05  .702584825922E-02  .385195016861E-05  .515359022522E+04
      .345600000000E+06  .931322574615E-07 -.111878145559E+01  .447034835815E-07
      .933781440934E+00  .289218750000E+03 -.102398346143E+01 -.847963892528E-08
     -.414302971667E-09  .200000000000E+01  .214800000000E+04  .100000000000E+01
      .200000000000E+01  .000000000000E+00 -.181607902050E-07  .950000000000E+02
      .343632000000E+06  .400000000000E+01
G32 2021  3 11  0  0  0  .209198333323E-04  .795807864051E-12  .000000000000E+00
      .980000000000E+02 -.345937500000E+02  .415160150230E-08 -.192218900366E+01
     -.175088644028E-05  .470220926218E-02  .121481716633E-04  .515365273857E+04
      .345600000000E+06  .335276126862E-07  .175325757879E-01 -.109896063805E-06
      .957720013568E+00  .145312500000E+03 -.241753837862E+01 -.766246202944E-08
      .348585948575E-09  .200000000000E+01  .214800000000E+04  .100000000000E+01
      .200000000000E+01  .000000000000E+00  .465661287308E-09  .980000000000E+02
      .343632000000E+06  .400000000000E+01
G 8 2021  3 11  0  0  0 -.132438726723E-04 -.136424205266E-11  .000000000000E+00
      .750000000000E+02  .730312500000E+02  .418624580251E-08 -.262738423260E+01
      .381655991077E-05  .628344959114E-02  .117681920528E-04  .515357109642E+04
      .345600000000E+06 -.149011611938E-06 -.313401626084E+01 -.633299350739E-07
      .968296415352E+00  .159531250000E+03 -.466484345231E-02 -.771996442465E-08
      .410731394325E-10  .200000000000E+01  .214800000000E+04  .100000000000E+01
      .400000000000E+01  .000000000000E+00  .512227416039E-08  .750000000000E+02
      .343634000000E+06  .600000000000E+01
G22 2021  3 10 23 59 28 -.663104467094E-03  .795807864051E-11  .000000000000E+00
      .000000000000E+00 -.108593750000E+03  .522128891621E-08  .261739439659E+01
     -.562705099583E-05  .702584860846E-02  .385195016861E-05  .515359022141E+04
      .345568000000E+06  .931322574615E-07 -.111878117471E+01  .447034835815E-07
      .933781445322E+00  .289218750000E+03 -.102398350971E+01 -.847963892528E-08
     -.414302971667E-09  .200000000000E+01  .214800000000E+04  .100000000000E+01
      .400000000000E+01  .000000000000E+00 -.181607902050E-07  .000000000000E+00
      .343634000000E+06  .600000000000E+01
